{"type": "FeatureCollection", "features": [ {"type": "Feature", "properties": {"norad_id": 31476, "name": "FENGYUN 1C DEB", "group": "fengyun-1c-debris", "lat": -67.60326858563306, "lon": -153.78238066999296, "alt_km": 799.0686695468885, "timestamp": "2025-12-01T03:58:50.097516+00:00", "meta": {"OBJECT_NAME": "FENGYUN 1C DEB", "OBJECT_ID": "1999-025BVQ", "EPOCH": "2025-11-27T17:45:04.782816", "MEAN_MOTION": 14.2194324, "ECCENTRICITY": 0.00529512, "INCLINATION": 98.8986, "RA_OF_ASC_NODE": 45.1067, "ARG_OF_PERICENTER": 213.747, "MEAN_ANOMALY": 146.0332, "EPHEMERIS_TYPE": 0, "CLASSIFICATION_TYPE": "U", "NORAD_CAT_ID": 31476, "ELEMENT_SET_NO": 999, "REV_AT_EPOCH": 95486, "BSTAR": 0.0016326267, "MEAN_MOTION_DOT": 3.611e-05, "MEAN_MOTION_DDOT": 0, "GROUP": "fengyun-1c-debris"}, "tle": {"line1": "1 31476U 99025BVQ 25331.73963869  .00003611  00000+0  16326-2 0  9991", "line2": "2 31476  98.8986  45.1067 0052951 213.7470 146.0332 14.21943240954861"}}, "geometry": {"type": "Point", "coordinates": [-153.78238066999296, -67.60326858563306]}}, {"type": "Feature", "properties": {"norad_id": 31477, "name": "FENGYUN 1C DEB", "group": "fengyun-1c-debris", "lat": 67.9317786865015, "lon": -57.548710559037545, "alt_km": 797.440694257858, "timestamp": "2025-12-01T03:58:50.097528+00:00", "meta": {"OBJECT_NAME": "FENGYUN 1C DEB", "OBJECT_ID": "1999-025BVR", "EPOCH": "2025-11-30T10:32:20.448384", "MEAN_MOTION": 14.02910526, "ECCENTRICITY": 0.01109276, "INCLINATION": 98.8848, "RA_OF_ASC_NODE": 324.4376, "ARG_OF_PERICENTER": 62.9914, "MEAN_ANOMALY": 298.2527, "EPHEMERIS_TYPE": 0, "CLASSIFICATION_TYPE": "U", "NORAD_CAT_ID": 31477, "ELEMENT_SET_NO": 999, "REV_AT_EPOCH": 95231, "BSTAR": 0.00010014394, "MEAN_MOTION_DOT": 1.21e-06, "MEAN_MOTION_DDOT": 0, "GROUP": "fengyun-1c-debris"}, "tle": {"line1": "1 31477U 99025BVR 25334.43912556  .00000121  00000+0  10014-3 0  9991", "line2": "2 31477  98.8848 324.4376 0110927  62.9914 298.2527 14.02910526952314"}}, "geometry": {"type": "Point", "coordinates": [-57.548710559037545, 67.9317786865015]}}, {"type": "Feature", "properties": {"norad_id": 31480, "name": "FENGYUN 1C DEB", "group": "fengyun-1c-debris", "lat": -74.32346627058091, "lon": -140.99068850445028, "alt_km": 714.7802329217893, "timestamp": "2025-12-01T03:58:50.097538+00:00", "meta": {"OBJECT_NAME": "FENGYUN 1C DEB", "OBJECT_ID": "1999-025BVU", "EPOCH": "2025-11-30T00:41:30.568128", "MEAN_MOTION": 13.89659076, "ECCENTRICITY": 0.03471459, "INCLINATION": 98.3391, "RA_OF_ASC_NODE": 186.4794, "ARG_OF_PERICENTER": 256.7128, "MEAN_ANOMALY": 99.5106, "EPHEMERIS_TYPE": 0, "CLASSIFICATION_TYPE": "U", "NORAD_CAT_ID": 31480, "ELEMENT_SET_NO": 999, "REV_AT_EPOCH": 93219, "BSTAR": 0.0040375274, "MEAN_MOTION_DOT": 8.007e-05, "MEAN_MOTION_DDOT": 0, "GROUP": "fengyun-1c-debris"}, "tle": {"line1": "1 31480U 99025BVU 25334.02882602  .00008007  00000+0  40375-2 0  9991", "line2": "2 31480  98.3391 186.4794 0347145 256.7128  99.5106 13.89659076932193"}}, "geometry": {"type": "Point", "coordinates": [-140.99068850445028, -74.32346627058091]}}, {"type": "Feature", "properties": {"norad_id": 31482, "name": "FENGYUN 1C DEB", "group": "fengyun-1c-debris", "lat": -60.03960095343391, "lon": 144.52424065055897, "alt_km": 764.4173749073007, "timestamp": "2025-12-01T03:58:50.097549+00:00", "meta": {"OBJECT_NAME": "FENGYUN 1C DEB", "OBJECT_ID": "1999-025BVW", "EPOCH": "2025-11-30T06:51:08.731872", "MEAN_MOTION": 14.35566494, "ECCENTRICITY": 0.00892655, "INCLINATION": 98.383, "RA_OF_ASC_NODE": 338.4905, "ARG_OF_PERICENTER": 319.7933, "MEAN_ANOMALY": 55.2561, "EPHEMERIS_TYPE": 0, "CLASSIFICATION_TYPE": "U", "NORAD_CAT_ID": 31482, "ELEMENT_SET_NO": 999, "REV_AT_EPOCH": 96951, "BSTAR": 0.00082976784, "MEAN_MOTION_DOT": 2.457e-05, "MEAN_MOTION_DDOT": 0, "GROUP": "fengyun-1c-debris"}, "tle": {"line1": "1 31482U 99025BVW 25334.28551773  .00002457  00000+0  82977-3 0  9991", "line2": "2 31482  98.3830 338.4905 0089265 319.7933  55.2561 14.35566494969519"}}, "geometry": {"type": "Point", "coordinates": [144.52424065055897, -60.03960095343391]}}, {"type": "Feature", "properties": {"norad_id": 31483, "name": "FENGYUN 1C DEB", "group": "fengyun-1c-debris", "lat": -4.987511983278252, "lon": 99.71440819901797, "alt_km": 805.5672315486054, "timestamp": "2025-12-01T03:58:50.097559+00:00", "meta": {"OBJECT_NAME": "FENGYUN 1C DEB", "OBJECT_ID": "1999-025BVX", "EPOCH": "2025-11-29T19:01:11.290656", "MEAN_MOTION": 14.15785114, "ECCENTRICITY": 0.01201755, "INCLINATION": 102.5031, "RA_OF_ASC_NODE": 278.9044, "ARG_OF_PERICENTER": 253.4677, "MEAN_ANOMALY": 136.317, "EPHEMERIS_TYPE": 0, "CLASSIFICATION_TYPE": "U", "NORAD_CAT_ID": 31483, "ELEMENT_SET_NO": 999, "REV_AT_EPOCH": 94523, "BSTAR": 0.003092956, "MEAN_MOTION_DOT": 6.449e-05, "MEAN_MOTION_DDOT": 0, "GROUP": "fengyun-1c-debris"}, "tle": {"line1": "1 31483U 99025BVX 25333.79249179  .00006449  00000+0  30930-2 0  9997", "line2": "2 31483 102.5031 278.9044 0120175 253.4677 136.3170 14.15785114945238"}}, "geometry": {"type": "Point", "coordinates": [99.71440819901797, -4.987511983278252]}}, {"type": "Feature", "properties": {"norad_id": 31484, "name": "FENGYUN 1C DEB", "group": "fengyun-1c-debris", "lat": -48.75414261490439, "lon": 73.16043696080348, "alt_km": 692.715307042954, "timestamp": "2025-12-01T03:58:50.097570+00:00", "meta": {"OBJECT_NAME": "FENGYUN 1C DEB", "OBJECT_ID": "1999-025BVY", "EPOCH": "2025-11-30T02:04:45.243264", "MEAN_MOTION": 14.4966468, "ECCENTRICITY": 0.00823207, "INCLINATION": 101.8065, "RA_OF_ASC_NODE": 265.4548, "ARG_OF_PERICENTER": 186.6364, "MEAN_ANOMALY": 173.3734, "EPHEMERIS_TYPE": 0, "CLASSIFICATION_TYPE": "U", "NORAD_CAT_ID": 31484, "ELEMENT_SET_NO": 999, "REV_AT_EPOCH": 64054, "BSTAR": 0.0054542068, "MEAN_MOTION_DOT": 0.00021901, "MEAN_MOTION_DDOT": 0, "GROUP": "fengyun-1c-debris"}, "tle": {"line1": "1 31484U 99025BVY 25334.08663476  .00021901  00000+0  54542-2 0  9996", "line2": "2 31484 101.8065 265.4548 0082320 186.6364 173.3734 14.49664680640541"}}, "geometry": {"type": "Point", "coordinates": [73.16043696080348, -48.75414261490439]}}, {"type": "Feature", "properties": {"norad_id": 31485, "name": "FENGYUN 1C DEB", "group": "fengyun-1c-debris", "lat": -34.68919075108125, "lon": -29.556799146083417, "alt_km": 1312.530192769278, "timestamp": "2025-12-01T03:58:50.097580+00:00", "meta": {"OBJECT_NAME": "FENGYUN 1C DEB", "OBJECT_ID": "1999-025BVZ", "EPOCH": "2025-11-30T10:45:15.167808", "MEAN_MOTION": 13.39950037, "ECCENTRICITY": 0.04451614, "INCLINATION": 102.7197, "RA_OF_ASC_NODE": 158.5362, "ARG_OF_PERICENTER": 345.4311, "MEAN_ANOMALY": 13.4315, "EPHEMERIS_TYPE": 0, "CLASSIFICATION_TYPE": "U", "NORAD_CAT_ID": 31485, "ELEMENT_SET_NO": 999, "REV_AT_EPOCH": 90280, "BSTAR": 0.0034066871, "MEAN_MOTION_DOT": 3.247e-05, "MEAN_MOTION_DDOT": 0, "GROUP": "fengyun-1c-debris"}, "tle": {"line1": "1 31485U 99025BVZ 25334.44809222  .00003247  00000+0  34067-2 0  9991", "line2": "2 31485 102.7197 158.5362 0445161 345.4311  13.4315 13.39950037902808"}}, "geometry": {"type": "Point", "coordinates": [-29.556799146083417, -34.68919075108125]}}, {"type": "Feature", "properties": {"norad_id": 31486, "name": "FENGYUN 1C DEB", "group": "fengyun-1c-debris", "lat": -23.645926771367282, "lon": -103.53352276487163, "alt_km": 27.418649738569002, "timestamp": "2025-12-01T03:58:50.097591+00:00", "meta": {"OBJECT_NAME": "FENGYUN 1C DEB", "OBJECT_ID": "1999-025BWA", "EPOCH": "2025-11-14T04:27:42.905664", "MEAN_MOTION": 15.42838759, "ECCENTRICITY": 0.0014807, "INCLINATION": 102.2338, "RA_OF_ASC_NODE": 221.7235, "ARG_OF_PERICENTER": 94.448, "MEAN_ANOMALY": 265.8441, "EPHEMERIS_TYPE": 0, "CLASSIFICATION_TYPE": "U", "NORAD_CAT_ID": 31486, "ELEMENT_SET_NO": 999, "REV_AT_EPOCH": 96537, "BSTAR": 0.028518, "MEAN_MOTION_DOT": 0.01375576, "MEAN_MOTION_DDOT": 0, "GROUP": "fengyun-1c-debris"}, "tle": {"line1": "1 31486U 99025BWA 25318.18591326  .01375576  00000+0  28518-1 0  9999", "line2": "2 31486 102.2338 221.7235 0014807  94.4480 265.8441 15.42838759965376"}}, "geometry": {"type": "Point", "coordinates": [-103.53352276487163, -23.645926771367282]}}, {"type": "Feature", "properties": {"norad_id": 31487, "name": "FENGYUN 1C DEB", "group": "fengyun-1c-debris", "lat": 74.98640329997123, "lon": 14.813280713245751, "alt_km": 943.066785375323, "timestamp": "2025-12-01T03:58:50.097602+00:00", "meta": {"OBJECT_NAME": "FENGYUN 1C DEB", "OBJECT_ID": "1999-025BWB", "EPOCH": "2025-11-30T17:17:32.076960", "MEAN_MOTION": 13.9765506, "ECCENTRICITY": 0.0119635, "INCLINATION": 102.4138, "RA_OF_ASC_NODE": 139.0064, "ARG_OF_PERICENTER": 335.2006, "MEAN_ANOMALY": 42.4286, "EPHEMERIS_TYPE": 0, "CLASSIFICATION_TYPE": "U", "NORAD_CAT_ID": 31487, "ELEMENT_SET_NO": 999, "REV_AT_EPOCH": 94244, "BSTAR": 0.0012996, "MEAN_MOTION_DOT": 1.876e-05, "MEAN_MOTION_DDOT": 0, "GROUP": "fengyun-1c-debris"}, "tle": {"line1": "1 31487U 99025BWB 25334.72051015  .00001876  00000+0  12996-2 0  9996", "line2": "2 31487 102.4138 139.0064 0119635 335.2006  42.4286 13.97655060942442"}}, "geometry": {"type": "Point", "coordinates": [14.813280713245751, 74.98640329997123]}}]}